#aV2014  3 30  0  0  0.00000000     288 DD+AD WGS84 FIT  NGA
## 1786      0.00000000   300.00000000 56746 0.0000000000000
+   31     1  2  3  4  5  7  8  9 10 11 12 13 14 15 16 17 18
+         19 20 21 22 23 24 25 26 27 28 29 30 31 32  0  0  0
+          0  0  0  0  0  0  0  0  0  0  0  0  0  0  0  0  0
+          0  0  0  0  0  0  0  0  0  0  0  0  0  0  0  0  0
+          0  0  0  0  0  0  0  0  0  0  0  0  0  0  0  0  0
++         2  2  2  2  2  2  2  2  2  2  2  2  2  2  2  2  2
++         2  2  2  2  2  2  2  2  2  2  2  2  2  2  0  0  0
++         0  0  0  0  0  0  0  0  0  0  0  0  0  0  0  0  0
++         0  0  0  0  0  0  0  0  0  0  0  0  0  0  0  0  0
++         0  0  0  0  0  0  0  0  0  0  0  0  0  0  0  0  0
%c cc cc ccc ccc cccc cccc cccc cccc ccccc ccccc ccccc ccccc
%c cc cc ccc ccc cccc cccc cccc cccc ccccc ccccc ccccc ccccc
%f  0.0000000  0.000000000  0.00000000000  0.000000000000000
%f  0.0000000  0.000000000  0.00000000000  0.000000000000000
%i    0    0    0    0      0      0      0      0         0
%i    0    0    0    0      0      0      0      0         0
/*      NGA, ST. LOUIS,MO.                                  
/*   EPHEMERIS COMPUTED FROM  1 DAYS OF DATA                
/*   EPOCHA SMOOTHER                                       
/* CCCCCCCCCCCCCCCCCCCCCCCCCCCCCCCCCCCCCCCCCCCCCCCCCCCCCCCCC
*  2014  3 30 20 35  0.00000000
P  1 -18429.552159 -13348.690507 -13833.994593      6.476174                    
V  1  17547.050130   1221.651254 -24479.935089      0.016893                    
P  2  -4568.815505  15213.934961  21535.131074    486.917923                    
V  2 -26390.321038  -4758.463389  -2766.103410      0.021525                    
P  3   3415.025640 -23251.064016 -12764.890975    345.409182                    
V  3  10578.776619 -11639.472358  25267.675843      0.050257                    
P  4 -20117.175337   7827.051826  15321.428206      6.367993                    
V  4 -19248.456361  -5847.813892 -21612.954358      0.001145                    
P  5   1217.756940  24507.557498   9916.256205   -381.617955                    
V  5  -7119.687390 -10964.601820  28024.526030      0.020355                    
P  7 -26033.335391  -6059.984760    849.321024    329.834286                    
V  7   1400.621648  -1877.168076  31800.710669      0.042218                    
P  8 -24920.938207  -1214.369346  -9796.294242     12.621409                    
V  8 -11533.450682  -4750.499169  28887.035823      0.001923                    
P  9 -23872.819966   3526.735124 -11819.525252    316.401450                    
V  9 -13562.426138  -4126.507275  27239.940725      0.028640                    
P 10 -12119.743488  10837.424786  20595.879416   -119.981547                    
V 10  -9707.499964 -25292.752726   7893.725126     -0.012827                    
P 11 -11708.521936 -14409.730205 -19538.277434   -476.547318                    
V 11  23634.199357  -4739.376126 -10723.715085     -0.031824                    
P 12  11407.571158  23351.743746   5972.701568    195.483235                    
V 12    611.195235   7763.835444 -30994.863616      0.024054                    
P 13 -17125.892528  -2407.330563  20065.176873     14.817277                    
V 13  18051.666470 -18302.022743  12971.859236     -0.038824                    
P 14  21282.548334 -13017.307133  -8681.600583    185.952081                    
V 14  -6239.877243   9804.375602 -29417.380144     -0.033194                    
P 15   2728.467284  18633.095161 -18673.182756   -171.144250                    
V 15 -16266.075909  17448.867514  15366.897229     -0.021387                    
P 16   -106.199676 -24324.287181  10169.318695   -225.454883                    
V 16   5595.121314  11972.695876  28932.457636      0.017045                    
P 17 -20647.116386  14545.519925  -7570.718072    -80.879069                    
V 17   4858.774566  -9157.367347 -30057.915651     -0.032386                    
P 18  17370.599644   7561.475413 -18301.195392    310.305362                    
V 18   6505.036980  23337.211340  15113.607304      0.022166                    
P 19    647.020812 -18742.459564 -18755.565104   -448.011475                    
V 19  18111.667117 -15365.312887  16527.381202     -0.023684                    
P 20 -14180.265926 -21584.968835   6165.702284    174.953330                    
V 20    220.839969  -8885.724654 -29619.398979      0.035982                    
P 21  26450.803274   4219.206645   -699.301481   -352.449873                    
V 21   1003.259639   3557.658306  30796.944299     -0.022412                    
P 22  14343.939952  -6992.213657 -21021.745362    223.284342                    
V 22   9593.954243  25588.397436  -2106.198836      0.027958                    
P 23  -9075.306520 -12843.085089  21459.570850     -8.279222                    
V 23  18274.969248 -20022.002516  -4680.335493     -0.031898                    
P 24  13675.915164  14809.661434 -17361.724908    -25.841268                    
V 24 -21947.099018  -2112.366276 -19018.161965     -0.006478                    
P 25  16307.656633  13752.157934  15843.787029     20.316607                    
V 25   5328.893540  19494.175171 -22185.554787      0.012086                    
P 26  -9654.843211  21369.975902 -12829.398832    123.320588                    
V 26 -12405.790180   9218.763621  26336.438216     -0.112482                    
P 27  10699.736570 -22481.463918  -9180.044441    -20.376201                    
V 27   9497.248106  -7243.877789  28859.320014      0.002358                    
P 28 -14274.981621   2251.805253 -21689.052259    343.564318                    
V 28  -7837.509024 -27849.521674   2077.939558      0.028117                    
P 29  15955.423814   4033.758022  20881.527874    521.945702                    
V 29 -17574.733560  19716.682818   9685.637444      0.027365                    
P 30 -25158.859899   -563.140134  -8533.513744      2.522014                    
V 30  -9773.392225  -5337.989420  29169.074704     -0.017894                    
P 31  16378.013555  -9477.195131  18923.518302    334.052639                    
V 31  22811.154717   5913.531777 -16612.683217      0.001545                    
P 32  -4064.727458 -26266.525117  -3765.405037   -459.112015                    
V 32   3833.583533   3951.990926 -30651.914405      0.074085                    
EOF
